#aV2013  3  4  0  0  0.00000000     288 DD+AD WGS84 FIT  NGA
## 1730  86400.00000000   300.00000000 56355 0.0000000000000
+   31     1  2  3  4  5  6  7  8  9 10 11 12 13 14 15 16 17
+         18 19 20 21 22 23 24 25 26 28 29 30 31 32  0  0  0
+          0  0  0  0  0  0  0  0  0  0  0  0  0  0  0  0  0
+          0  0  0  0  0  0  0  0  0  0  0  0  0  0  0  0  0
+          0  0  0  0  0  0  0  0  0  0  0  0  0  0  0  0  0
++         2  2  2  2  2  2  2  2  2  2  2  2  2  2  2  2  2
++         2  2  2  2  2  2  2  2  2  2  2  2  2  2  2  0  0
++         0  0  0  0  0  0  0  0  0  0  0  0  0  0  0  0  0
++         0  0  0  0  0  0  0  0  0  0  0  0  0  0  0  0  0
++         0  0  0  0  0  0  0  0  0  0  0  0  0  0  0  0  0
%c cc cc ccc ccc cccc cccc cccc cccc ccccc ccccc ccccc ccccc
%c cc cc ccc ccc cccc cccc cccc cccc ccccc ccccc ccccc ccccc
%f  0.0000000  0.000000000  0.00000000000  0.000000000000000
%f  0.0000000  0.000000000  0.00000000000  0.000000000000000
%i    0    0    0    0      0      0      0      0         0
%i    0    0    0    0      0      0      0      0         0
/*      NGA, ST. LOUIS,MO.                                  
/*   EPHEMERIS COMPUTED FROM  1 DAYS OF DATA
/*   EPOCHA SMOOTHER  
/* CCCCCCCCCCCCCCCCCCCCCCCCCCCCCCCCCCCCCCCCCCCCCCCCCCCCCCCCC
*  2013  3  4 11  5  0.00000000                                                 
P  1  19156.521527  13824.277002 -12232.857324      4.792505                    
V  1 -15551.897997  -1688.695995 -26232.046068      0.029182                    
P  2   3360.551911 -15412.746624  21554.201084    420.918486                    
V  2  26230.098684   6484.783536     37.292457      0.015583                    
P  3  -5075.466615  22844.543801 -12850.203502    176.070831                    
V  3 -11719.654640  10825.590350  25085.071960      0.050234                    
P  4  17783.131443  -8718.845702  17549.824564    151.502258                    
V  4  21611.828188   7529.028411 -17591.323049      0.109619                    
P  5  -1579.958758 -25381.269750   7373.753527   -386.374277                    
V  5   5544.931324   8273.019180  29678.899740     -0.016381                    
P  6 -11705.320943  22246.614300  -7909.833454    328.287949                    
V  6  -9422.491479   5451.355058  29278.489704     -0.148780                    
P  7  25974.745998   5951.651950  -1902.206668    187.298706                    
V  7   1786.315296   2672.383994  31776.121907      0.043685                    
P  8  23735.466561    470.954282 -12396.877549      4.929231                    
V  8  14280.458634   6441.391592  26787.849248      0.001424                    
P  9   1844.162462 -14908.355228 -22438.000173    224.629151                    
V  9  26319.611024   6562.165673  -2307.216556      0.026376                    
P 10  10765.959802 -14201.616814  19274.430165    -71.990229                    
V 10   7947.190954  24064.353485  13508.246204     -0.014465                    
P 11  13850.705386  14254.085864 -18165.998588   -359.133860                    
V 11 -22328.403184   3031.603194 -14721.111410     -0.037021                    
P 12 -11460.288571 -22429.649945   8728.179759    121.010123                    
V 12   -880.196195 -11138.267238 -29500.592984      0.020736                    
P 13  17539.719765   2493.600430  19683.990684    140.278490                    
V 13 -18784.182600  16840.251156  14387.250880     -0.029316                    
P 14 -21673.964779  14102.238622  -5541.505732    220.802384                    
V 14   3865.289519  -6656.280774 -31116.281630      0.001875                    
P 15  -4270.040020 -16824.001448 -20063.775322   -110.336467                    
V 15  18419.370574 -17765.776925  11245.329188     -0.012945                    
P 16   -169.345295  24984.721369   8480.389752   -252.549844                    
V 16  -4522.031742 -10107.610149  29980.637707     -0.000690                    
P 17  20926.229141 -15479.199640  -4377.590613     43.819742                    
V 17  -2307.941542   6104.500068 -31345.934332     -0.038113                    
P 18 -16517.803186  -2751.350506 -20291.814918    242.268463                    
V 18  -6170.951886 -25999.791223   8039.555520      0.018803                    
P 19   -276.130432  17998.905712 -19467.657364   -353.519525                    
V 19 -19788.021307  14823.147028  14449.295463     -0.031580                    
P 20  14247.395265  20248.073008   9542.544097     86.636990                    
V 20    670.438806  12844.760261 -27666.029683      0.017028                    
P 21 -26114.038197  -3078.650841  -4875.579851   -284.062306                    
V 21  -5756.766441  -4861.360274  29943.476243     -0.022176                    
P 22 -12947.449654  10758.759295 -20332.565697    160.102072                    
V 22  -7998.542169 -25190.110815  -8297.490793      0.012573                    
P 23  11598.723029  10083.849609  21731.814183    108.295338                    
V 23 -19558.540343  19268.265216   1122.006115     -0.036648                    
P 24 -16136.266833 -14886.238030 -14979.832982     -2.075255                    
V 24  18928.419659   2645.610806 -22989.782328     -0.006509                    
P 25 -15796.118459 -12683.584568  17186.325540     75.000671                    
V 25  -4529.491595 -21412.373773 -19830.797925      0.032056                    
P 26   8849.788500 -20462.973923 -14798.081355    -79.620030                    
V 26  14695.653253 -10173.427283  24237.186240      0.143543                    
P 28  13415.065838  -5969.558213 -21537.495601    237.877113                    
V 28   6476.457999  27976.494462  -3801.790418      0.034161                    
P 29 -17912.076149  -1899.186583  19561.301468    413.430935                    
V 29  17352.772562 -17643.239181  14258.534195      0.036402                    
P 30  -5106.511442  19483.628236  16973.350420   -212.980183                    
V 30  -9713.042212 -20067.689193  19687.357737      0.075223                    
P 31 -14459.381205   9939.345544  20202.061629    305.011288                    
V 31 -23958.782139  -7584.368697 -13264.151758      0.016506                    
P 32   7458.918185  25528.273214   3773.956336   -540.395069                    
V 32  -1801.919080   4962.610732 -30693.471413     -0.030688                    
EOF
